QZS-1R                  
1 49336U 21096A   23262.87410719 -.00000213  00000+0  00000+0 0  9990
2 49336  35.3831  94.6773 0744173 269.5850  83.1193  1.00287874  6960
